BEIDOU-2 IGSO-1 (C06)   
1 36828U 10036A   26071.66299657 -.00000139  00000+0  00000+0 0  9995
2 36828  54.2928 163.8363 0054306 219.2821 130.2701  1.00250454 57122
BEIDOU-2 G4 (C04)       
1 37210U 10057A   26072.60179236 -.00000111  00000+0  00000+0 0  9999
2 37210   3.4082  69.4904 0008168 213.1832 265.2280  1.00272649 56330
BEIDOU-2 IGSO-2 (C07)   
1 37256U 10068A   26069.49439653 -.00000157  00000+0  00000+0 0  9996
2 37256  47.7215 273.0501 0047490 213.2827 326.5355  1.00257833 55804
BEIDOU-2 IGSO-3 (C08)   
1 37384U 11013A   26064.72099782 -.00000170  00000+0  00000+0 0  9990
2 37384  62.2726  41.1265 0035062 190.7769 297.3260  1.00293315 54626
BEIDOU-2 IGSO-4 (C09)   
1 37763U 11038A   26070.78650138 -.00000101  00000+0  00000+0 0  9993
2 37763  54.5894 166.5549 0155085 231.0620 149.1617  1.00264423 53679
BEIDOU-2 IGSO-5 (C10)   
1 37948U 11073A   26072.51754471 -.00000095  00000+0  00000+0 0  9997
2 37948  47.8524 272.7266 0108864 221.0720 318.7247  1.00270695 52173
BEIDOU-2 G5 (C05)       
1 38091U 12008A   26072.58177228  .00000058  00000+0  00000+0 0  9990
2 38091   3.3340  70.2524 0013702 256.9553 112.1809  1.00269744 51410
BEIDOU-2 M3 (C11)       
1 38250U 12018A   26072.07329865 -.00000032  00000+0  00000+0 0  9991
2 38250  55.8396 308.1159 0021097 279.7752  80.0427  1.86230193 94154
BEIDOU-2 M4 (C12)       
1 38251U 12018B   26072.00546832 -.00000031  00000+0  00000+0 0  9999
2 38251  55.7402 307.3399 0012191 287.4004  72.5220  1.86229915 94157
BEIDOU-2 M6 (C14)       
1 38775U 12050B   26071.71561593  .00000008  00000+0  00000+0 0  9997
2 38775  56.4609  66.0825 0014127 342.5009  17.4715  1.86231021 91512
BEIDOU-2 G6 (C02)       
1 38953U 12059A   26072.58679897 -.00000174  00000+0  00000+0 0  9992
2 38953   4.1779  74.5435 0010539 306.2851  85.5672  1.00276066 48956
BEIDOU-3S IGSO-1S (C31) 
1 40549U 15019A   26072.58905230 -.00000139  00000+0  00000+0 0  9999
2 40549  49.3736 296.6132 0035647 190.1678 352.9044  1.00272189 40115
BEIDOU-3S M2S (C58)     
1 40748U 15037A   26070.06157668 -.00000044  00000+0  00000+0 0  9990
2 40748  54.9571 305.4255 0008633 278.4244  81.5286  1.86232227 72294
BEIDOU-3S M1S (C57)     
1 40749U 15037B   26071.89165788 -.00000029  00000+0  00000+0 0  9998
2 40749  54.9520 305.3509 0004583  33.1330 326.9501  1.86254744 72331
BEIDOU-2 IGSO-6 (C13)   
1 41434U 16021A   26070.87699223 -.00000131  00000+0  00000+0 0  9991
2 41434  60.0969  39.0050 0059566 233.2714 308.7278  1.00277411 36500
BEIDOU-2 G7 (C03)       
1 41586U 16037A   26072.63238983 -.00000353  00000+0  00000+0 0  9990
2 41586   1.4828  68.3062 0007546 346.3280  94.8147  1.00276059  5932
BEIDOU-3 M1 (C19)       
1 43001U 17069A   26072.01799936  .00000011  00000+0  00000+0 0  9992
2 43001  56.6089  66.2503 0012510 309.8790  50.0328  1.86231473 56814
BEIDOU-3 M2 (C20)       
1 43002U 17069B   26071.95651705  .00000011  00000+0  00000+0 0  9996
2 43002  56.6078  66.2881 0009836 329.3549  30.6095  1.86230974 56807
BEIDOU-3 M7 (C27)       
1 43107U 18003A   26069.01366214 -.00000054  00000+0  00000+0 0  9991
2 43107  54.4158 305.7741 0004805  71.6026 288.4990  1.86232563 55501
BEIDOU-3 M8 (C28)       
1 43108U 18003B   26071.10707579 -.00000037  00000+0  00000+0 0  9999
2 43108  54.4063 305.6835 0002943 294.8994  65.1222  1.86231167 55556
BEIDOU-3 M4 (C22)       
1 43207U 18018A   26072.08626660  .00000012  00000+0  00000+0 0  9996
2 43207  56.5678  66.3153 0006972 350.3592   9.6495  1.86231392 54951
BEIDOU-3 M3 (C21)       
1 43208U 18018B   26072.15271001  .00000012  00000+0  00000+0 0  9990
2 43208  56.5674  66.3171 0010039 319.6425  40.3052  1.86231479 54957
BEIDOU-3 M9 (C29)       
1 43245U 18029A   26071.83299133 -.00000026  00000+0  00000+0 0  9999
2 43245  54.2803 303.3197 0000989  26.5592 333.4992  1.86228478 54102
BEIDOU-3 M10 (C30)      
1 43246U 18029B   26070.15695869 -.00000040  00000+0  00000+0 0  9996
2 43246  54.2796 303.4048 0005206  25.3248 334.7506  1.86229238 54056
BEIDOU-2 IGSO-7 (C16)   
1 43539U 18057A   26071.66561668 -.00000155  00000+0  00000+0 0  9995
2 43539  55.1864 163.9036 0100568 236.8107 121.9133  1.00280880 28153
BEIDOU-3 M5 (C23)       
1 43581U 18062A   26071.45501707 -.00000011  00000+0  00000+0 0  9994
2 43581  54.0877 185.5927 0002388 304.9134  55.0505  1.86228824 51834
BEIDOU-3 M6 (C24)       
1 43582U 18062B   26071.85493390 -.00000012  00000+0  00000+0 0  9998
2 43582  54.0872 185.5682 0005988  41.7221 318.3092  1.86227825 51847
BEIDOU-3 M12 (C26)      
1 43602U 18067A   26071.25639623 -.00000011  00000+0  00000+0 0  9990
2 43602  54.1816 184.3275 0008368  38.9780 321.0706  1.86227850 51310
BEIDOU-3 M11 (C25)      
1 43603U 18067B   26071.39116749 -.00000012  00000+0  00000+0 0  9996
2 43603  54.1791 184.2861 0004938  32.5137 327.5049  1.86227337 51342
BEIDOU-3 M13 (C32)      
1 43622U 18072A   26071.88388212  .00000009  00000+0  00000+0 0  9998
2 43622  56.5410  65.8356 0009034 308.7444  51.1959  1.86231253 50869
BEIDOU-3 M14 (C33)      
1 43623U 18072B   26071.74933770  .00000008  00000+0  00000+0 0  9998
2 43623  56.5428  65.8343 0006575 329.8398  30.1432  1.86231274 50859
BEIDOU-3 M16 (C35)      
1 43647U 18078A   26071.90610333 -.00000026  00000+0  00000+0 0  9996
2 43647  54.1767 303.3622 0008469  32.4141 327.6914  1.86232435 50367
BEIDOU-3 M15 (C34)      
1 43648U 18078B   26072.03539906 -.00000025  00000+0  00000+0 0  9997
2 43648  54.1725 303.3583 0005418  39.4286 320.6645  1.86232395 50387
BEIDOU-3 G1 (C59)       
1 43683U 18085A   26072.31265080 -.00000279  00000+0  00000+0 0  9995
2 43683   2.8312 100.0786 0002095   8.4898 314.8220  1.00265903 27091
BEIDOU-3 M17 (C36)      
1 43706U 18093A   26069.52214490  .00000002  00000+0  00000+0 0  9991
2 43706  54.1708 185.6435 0007231 296.1360  71.6984  1.86228516 49703
BEIDOU-3 M18 (C37)      
1 43707U 18093B   26071.52058132 -.00000011  00000+0  00000+0 0  9995
2 43707  54.1720 185.5676 0006110 338.6816  21.2791  1.86226619 49739
BEIDOU-3 IGSO-1 (C38)   
1 44204U 19023A   26072.30823079 -.00000186  00000+0  00000+0 0  9992
2 44204  58.5664  38.6357 0025671 236.0690 126.1600  1.00268557  6252
BEIDOU-2 G8 (C01)       
1 44231U 19027A   26072.52742476 -.00000247  00000+0  00000+0 0  9999
2 44231   1.4144  74.2583 0011480 274.5216 156.7417  1.00274144 25124
BEIDOU-3 IGSO-2 (C39)   
1 44337U 19035A   26057.68879618 -.00000176  00000+0  00000+0 0  9995
2 44337  55.2338 159.8353 0038734 206.4752 153.7223  1.00247364 24561
BEIDOU-3 M24 (C46)      
1 44542U 19061A   26071.59046001 -.00000011  00000+0  00000+0 0  9998
2 44542  54.3985 185.9849 0008561  19.8304 340.1884  1.86229082 43995
BEIDOU-3 M23 (C45)      
1 44543U 19061B   26071.13900043 -.00000009  00000+0  00000+0 0  9991
2 44543  54.3975 185.9688 0004976  10.6705 318.8703  1.86227389 43985
BEIDOU-3 IGSO-3 (C40)   
1 44709U 19073A   26069.98346678 -.00000143  00000+0  00000+0 0  9995
2 44709  54.9673 281.9576 0040728 188.7089 171.2538  1.00267242 23477
BEIDOU-3 M22 (C44)      
1 44793U 19078A   26071.96661479 -.00000026  00000+0  00000+0 0  9993
2 44793  54.0225 303.2142 0007468  38.0258 322.0804  1.86232299 42853
BEIDOU-3 M21 (C43)      
1 44794U 19078B   26071.03242650 -.00000032  00000+0  00000+0 0  9995
2 44794  53.9966 303.2101 0005425  33.1471 326.9381  1.86227925 42845
BEIDOU-3 M19 (C41)      
1 44864U 19090A   26072.08090314  .00000011  00000+0  00000+0 0  9997
2 44864  56.4754  65.9655 0020546 291.6910 247.8851  1.86231740 42441
BEIDOU-3 M20 (C42)      
1 44865U 19090B   26072.47993122  .00000014  00000+0  00000+0 0  9993
2 44865  56.4773  65.9867 0017949 303.1243 233.5890  1.86231694 42431
BEIDOU-3 G2 (C60)       
1 45344U 20017A   26072.58601896 -.00000139  00000+0  00000+0 0  9992
2 45344   2.6715  45.7322 0002715 321.8730  94.6232  1.00272551 22301
BEIDOU-3 G3 (C61)       
1 45807U 20040A   26072.63238983 -.00000353  00000+0  00000+0 0  9999
2 45807   2.2112  67.1469 0004789 324.8020 117.4994  1.00271286 21111
BEIDOU-3 G4 (C62)       
1 56564U 23066A   26072.17398353 -.00000111  00000+0  00000+0 0  9991
2 56564   0.6336 312.1088 0002647 153.4351 287.9442  1.00272296 10433
BEIDOU-3 M28 (C50)      
1 58654U 23207A   26071.64684337  .00000004  00000+0  00000+0 0  9991
2 58654  55.6683  65.5584 0004967 305.6755  54.2988  1.86229829 15046
BEIDOU-3 M26 (C48)      
1 58655U 23207B   26071.98128333  .00000007  00000+0  00000+0 0  9991
2 58655  55.6706  65.5333 0005712 290.9494  69.0106  1.86229745 15032
BEIDOU-3 M25 (C47)      
1 61186U 24168B   26072.08950622 -.00000029  00000+0  00000+0 0  9992
2 61186  54.5581 305.5833 0004180 319.4727 230.0770  1.86230320  9996
BEIDOU-3 M27 (C49)      
1 61187U 24168C   26072.41641809 -.00000027  00000+0  00000+0 0  9992
2 61187  54.5535 305.5552 0002951  22.0693 161.6517  1.86230457  7477
